CZ-2D R/B               
1 28738U 05024B   25336.92679874  .00031325  00000+0  51226-3 0  9992
2 28738  97.3631 344.1229 0007005  37.3162 322.8576 15.52449645124733
ALOS (DAICHI)           
1 28931U 06002A   25336.89005181  .00002006  00000+0  34712-3 0  9999
2 28931  98.1076 288.4479 0000729 102.7639 257.3648 14.69437060 59261
H-2A R/B                
1 28932U 06002B   25336.94039586  .00014671  00000+0  77665-3 0  9997
2 28932  98.2307 110.8909 0054551 209.7783 150.0339 15.14246192 79786
RESURS-DK 1             
1 29228U 06021A   25336.84152891  .00004317  00000+0  25634-3 0  9996
2 29228  69.9327 127.4146 0007822 265.8783  94.1489 15.12068181 72887
CZ-4B R/B               
1 29507U 06046C   25337.13107997  .00007641  00000+0  39920-3 0  9999
2 29507  97.5751  17.2961 0032770 240.8382 118.9570 15.15714634 45413
CZ-2C R/B               
1 31114U 07010B   25337.06667591  .00000236  00000+0  12754-3 0  9990
2 31114  98.3973  90.2044 0058461 214.2690 145.4710 14.20203033966009
COSMO-SKYMED 1          
1 31598U 07023A   25337.15469574  .00004848  00000+0  44129-3 0  9995
2 31598  97.8843 162.4917 0001454  81.9285 278.2101 14.95652464   472
COSMOS 2428             
1 31792U 07029A   25337.18064888  .00000010  00000+0  31021-4 0  9994
2 31792  70.9373  45.9498 0003132  38.0043 322.1298 14.12886896950463
SL-16 R/B               
1 31793U 07029B   25337.12903704 -.00000174  00000+0 -65532-4 0  9995
2 31793  70.9769  15.3607 0002432 265.8404 163.8984 14.14816287951719
KORONAS-FOTON           
1 33504U 09003A   25337.14419117  .00015101  00000+0  36590-3 0  9998
2 33504  82.4326  16.0469 0012675 139.1917 221.0280 15.40861902930867
CZ-2C R/B               
1 37731U 11030B   25337.12450888  .00002486  00000+0  32183-3 0  9991
2 37731  97.8395 291.4450 0051755 305.7726  64.2699 14.80846914775800
H-2A R/B                
1 38341U 12025E   25337.13177352  .00004591  00000+0  42517-3 0  9998
2 38341  98.4578 291.6225 0043944 268.8317  90.7867 14.94341302733795
