CCSDS_OMM_VERS = 2.0
CREATION_DATE  = 
ORIGINATOR     = 

OBJECT_NAME    = CZ-2D R/B
OBJECT_ID      = 2005-024B
CENTER_NAME    = EARTH
REF_FRAME      = TEME
TIME_SYSTEM    = UTC
MEAN_ELEMENT_THEORY = SGP/SGP4

EPOCH          = 2025-12-02T22:14:35.411136
MEAN_MOTION    = 15.52449645
ECCENTRICITY   = .0007005
INCLINATION    = 97.3631
RA_OF_ASC_NODE = 344.1229
ARG_OF_PERICENTER = 37.3162
MEAN_ANOMALY   = 322.8576

EPHEMERIS_TYPE = 0
CLASSIFICATION_TYPE = U
NORAD_CAT_ID   = 28738
ELEMENT_SET_NO = 999
REV_AT_EPOCH   = 12473
BSTAR          = .51226E-3
MEAN_MOTION_DOT = .31325E-3
MEAN_MOTION_DDOT = 0

CCSDS_OMM_VERS = 2.0
CREATION_DATE  = 
ORIGINATOR     = 

OBJECT_NAME    = ALOS (DAICHI)
OBJECT_ID      = 2006-002A
CENTER_NAME    = EARTH
REF_FRAME      = TEME
TIME_SYSTEM    = UTC
MEAN_ELEMENT_THEORY = SGP/SGP4

EPOCH          = 2025-12-02T21:21:40.476384
MEAN_MOTION    = 14.69437060
ECCENTRICITY   = .0000729
INCLINATION    = 98.1076
RA_OF_ASC_NODE = 288.4479
ARG_OF_PERICENTER = 102.7639
MEAN_ANOMALY   = 257.3648

EPHEMERIS_TYPE = 0
CLASSIFICATION_TYPE = U
NORAD_CAT_ID   = 28931
ELEMENT_SET_NO = 999
REV_AT_EPOCH   = 5926
BSTAR          = .34712E-3
MEAN_MOTION_DOT = .2006E-4
MEAN_MOTION_DDOT = 0

CCSDS_OMM_VERS = 2.0
CREATION_DATE  = 
ORIGINATOR     = 

OBJECT_NAME    = H-2A R/B
OBJECT_ID      = 2006-002B
CENTER_NAME    = EARTH
REF_FRAME      = TEME
TIME_SYSTEM    = UTC
MEAN_ELEMENT_THEORY = SGP/SGP4

EPOCH          = 2025-12-02T22:34:10.202304
MEAN_MOTION    = 15.14246192
ECCENTRICITY   = .0054551
INCLINATION    = 98.2307
RA_OF_ASC_NODE = 110.8909
ARG_OF_PERICENTER = 209.7783
MEAN_ANOMALY   = 150.0339

EPHEMERIS_TYPE = 0
CLASSIFICATION_TYPE = U
NORAD_CAT_ID   = 28932
ELEMENT_SET_NO = 999
REV_AT_EPOCH   = 7978
BSTAR          = .77665E-3
MEAN_MOTION_DOT = .14671E-3
MEAN_MOTION_DDOT = 0

CCSDS_OMM_VERS = 2.0
CREATION_DATE  = 
ORIGINATOR     = 

OBJECT_NAME    = RESURS-DK 1
OBJECT_ID      = 2006-021A
CENTER_NAME    = EARTH
REF_FRAME      = TEME
TIME_SYSTEM    = UTC
MEAN_ELEMENT_THEORY = SGP/SGP4

EPOCH          = 2025-12-02T20:11:48.097824
MEAN_MOTION    = 15.12068181
ECCENTRICITY   = .0007822
INCLINATION    = 69.9327
RA_OF_ASC_NODE = 127.4146
ARG_OF_PERICENTER = 265.8783
MEAN_ANOMALY   = 94.1489

EPHEMERIS_TYPE = 0
CLASSIFICATION_TYPE = U
NORAD_CAT_ID   = 29228
ELEMENT_SET_NO = 999
REV_AT_EPOCH   = 7288
BSTAR          = .25634E-3
MEAN_MOTION_DOT = .4317E-4
MEAN_MOTION_DDOT = 0

CCSDS_OMM_VERS = 2.0
CREATION_DATE  = 
ORIGINATOR     = 

OBJECT_NAME    = CZ-4B R/B
OBJECT_ID      = 2006-046C
CENTER_NAME    = EARTH
REF_FRAME      = TEME
TIME_SYSTEM    = UTC
MEAN_ELEMENT_THEORY = SGP/SGP4

EPOCH          = 2025-12-03T03:08:45.309408
MEAN_MOTION    = 15.15714634
ECCENTRICITY   = .003277
INCLINATION    = 97.5751
RA_OF_ASC_NODE = 17.2961
ARG_OF_PERICENTER = 240.8382
MEAN_ANOMALY   = 118.9570

EPHEMERIS_TYPE = 0
CLASSIFICATION_TYPE = U
NORAD_CAT_ID   = 29507
ELEMENT_SET_NO = 999
REV_AT_EPOCH   = 4541
BSTAR          = .3992E-3
MEAN_MOTION_DOT = .7641E-4
MEAN_MOTION_DDOT = 0

CCSDS_OMM_VERS = 2.0
CREATION_DATE  = 
ORIGINATOR     = 

OBJECT_NAME    = CZ-2C R/B
OBJECT_ID      = 2007-010B
CENTER_NAME    = EARTH
REF_FRAME      = TEME
TIME_SYSTEM    = UTC
MEAN_ELEMENT_THEORY = SGP/SGP4

EPOCH          = 2025-12-03T01:36:00.798624
MEAN_MOTION    = 14.20203033
ECCENTRICITY   = .0058461
INCLINATION    = 98.3973
RA_OF_ASC_NODE = 90.2044
ARG_OF_PERICENTER = 214.2690
MEAN_ANOMALY   = 145.4710

EPHEMERIS_TYPE = 0
CLASSIFICATION_TYPE = U
NORAD_CAT_ID   = 31114
ELEMENT_SET_NO = 999
REV_AT_EPOCH   = 96600
BSTAR          = .12754E-3
MEAN_MOTION_DOT = .236E-5
MEAN_MOTION_DDOT = 0

CCSDS_OMM_VERS = 2.0
CREATION_DATE  = 
ORIGINATOR     = 

OBJECT_NAME    = COSMO-SKYMED 1
OBJECT_ID      = 2007-023A
CENTER_NAME    = EARTH
REF_FRAME      = TEME
TIME_SYSTEM    = UTC
MEAN_ELEMENT_THEORY = SGP/SGP4

EPOCH          = 2025-12-03T03:42:45.711936
MEAN_MOTION    = 14.95652464
ECCENTRICITY   = .0001454
INCLINATION    = 97.8843
RA_OF_ASC_NODE = 162.4917
ARG_OF_PERICENTER = 81.9285
MEAN_ANOMALY   = 278.2101

EPHEMERIS_TYPE = 0
CLASSIFICATION_TYPE = U
NORAD_CAT_ID   = 31598
ELEMENT_SET_NO = 999
REV_AT_EPOCH   = 47
BSTAR          = .44129E-3
MEAN_MOTION_DOT = .4848E-4
MEAN_MOTION_DDOT = 0

CCSDS_OMM_VERS = 2.0
CREATION_DATE  = 
ORIGINATOR     = 

OBJECT_NAME    = COSMOS 2428
OBJECT_ID      = 2007-029A
CENTER_NAME    = EARTH
REF_FRAME      = TEME
TIME_SYSTEM    = UTC
MEAN_ELEMENT_THEORY = SGP/SGP4

EPOCH          = 2025-12-03T04:20:08.063232
MEAN_MOTION    = 14.12886896
ECCENTRICITY   = .0003132
INCLINATION    = 70.9373
RA_OF_ASC_NODE = 45.9498
ARG_OF_PERICENTER = 38.0043
MEAN_ANOMALY   = 322.1298

EPHEMERIS_TYPE = 0
CLASSIFICATION_TYPE = U
NORAD_CAT_ID   = 31792
ELEMENT_SET_NO = 999
REV_AT_EPOCH   = 95046
BSTAR          = .31021E-4
MEAN_MOTION_DOT = .1E-6
MEAN_MOTION_DDOT = 0

CCSDS_OMM_VERS = 2.0
CREATION_DATE  = 
ORIGINATOR     = 

OBJECT_NAME    = SL-16 R/B
OBJECT_ID      = 2007-029B
CENTER_NAME    = EARTH
REF_FRAME      = TEME
TIME_SYSTEM    = UTC
MEAN_ELEMENT_THEORY = SGP/SGP4

EPOCH          = 2025-12-03T03:05:48.800256
MEAN_MOTION    = 14.14816287
ECCENTRICITY   = .0002432
INCLINATION    = 70.9769
RA_OF_ASC_NODE = 15.3607
ARG_OF_PERICENTER = 265.8404
MEAN_ANOMALY   = 163.8984

EPHEMERIS_TYPE = 0
CLASSIFICATION_TYPE = U
NORAD_CAT_ID   = 31793
ELEMENT_SET_NO = 999
REV_AT_EPOCH   = 95171
BSTAR          = -.65532E-4
MEAN_MOTION_DOT = -.174E-5
MEAN_MOTION_DDOT = 0

CCSDS_OMM_VERS = 2.0
CREATION_DATE  = 
ORIGINATOR     = 

OBJECT_NAME    = KORONAS-FOTON
OBJECT_ID      = 2009-003A
CENTER_NAME    = EARTH
REF_FRAME      = TEME
TIME_SYSTEM    = UTC
MEAN_ELEMENT_THEORY = SGP/SGP4

EPOCH          = 2025-12-03T03:27:38.117088
MEAN_MOTION    = 15.40861902
ECCENTRICITY   = .0012675
INCLINATION    = 82.4326
RA_OF_ASC_NODE = 16.0469
ARG_OF_PERICENTER = 139.1917
MEAN_ANOMALY   = 221.0280

EPHEMERIS_TYPE = 0
CLASSIFICATION_TYPE = U
NORAD_CAT_ID   = 33504
ELEMENT_SET_NO = 999
REV_AT_EPOCH   = 93086
BSTAR          = .3659E-3
MEAN_MOTION_DOT = .15101E-3
MEAN_MOTION_DDOT = 0

CCSDS_OMM_VERS = 2.0
CREATION_DATE  = 
ORIGINATOR     = 

OBJECT_NAME    = CZ-2C R/B
OBJECT_ID      = 2011-030B
CENTER_NAME    = EARTH
REF_FRAME      = TEME
TIME_SYSTEM    = UTC
MEAN_ELEMENT_THEORY = SGP/SGP4

EPOCH          = 2025-12-03T02:59:17.567232
MEAN_MOTION    = 14.80846914
ECCENTRICITY   = .0051755
INCLINATION    = 97.8395
RA_OF_ASC_NODE = 291.4450
ARG_OF_PERICENTER = 305.7726
MEAN_ANOMALY   = 64.2699

EPHEMERIS_TYPE = 0
CLASSIFICATION_TYPE = U
NORAD_CAT_ID   = 37731
ELEMENT_SET_NO = 999
REV_AT_EPOCH   = 77580
BSTAR          = .32183E-3
MEAN_MOTION_DOT = .2486E-4
MEAN_MOTION_DDOT = 0

CCSDS_OMM_VERS = 2.0
CREATION_DATE  = 
ORIGINATOR     = 

OBJECT_NAME    = H-2A R/B
OBJECT_ID      = 2012-025E
CENTER_NAME    = EARTH
REF_FRAME      = TEME
TIME_SYSTEM    = UTC
MEAN_ELEMENT_THEORY = SGP/SGP4

EPOCH          = 2025-12-03T03:09:45.232128
MEAN_MOTION    = 14.94341302
ECCENTRICITY   = .0043944
INCLINATION    = 98.4578
RA_OF_ASC_NODE = 291.6225
ARG_OF_PERICENTER = 268.8317
MEAN_ANOMALY   = 90.7867

EPHEMERIS_TYPE = 0
CLASSIFICATION_TYPE = U
NORAD_CAT_ID   = 38341
ELEMENT_SET_NO = 999
REV_AT_EPOCH   = 73379
BSTAR          = .42517E-3
MEAN_MOTION_DOT = .4591E-4
MEAN_MOTION_DDOT = 0

